<!DOCTYPE html PUBLIC "-//W3C//DTD XHTML 1.0 Strict//EN" "http://www.w3.org/TR/xhtml1/DTD/xhtml1-strict.dtd">
<html xmlns="http://www.w3.org/1999/xhtml">
<head>
<meta http-equiv="Content-Type" content="text/html; charset=iso-8859-1"/>
<title>404 - File Not Found.</title>
<style type="text/css">
<!--
body{margin:0;font-size:.7em;font-family:Verdana, Arial, Helvetica, sans-serif;background:#EEEEEE;}
fieldset{padding:0 15px 10px 15px;}
h1{font-size:2.4em;margin:0;color:#FFF;}
h2{font-size:1.7em;margin:0;color:#CC0000;}
h3{font-size:1.2em;margin:10px 0 0 0;color:#000000;}
#header{width:96%;margin:0 0 0 0;padding:6px 2% 6px 2%;font-family:"trebuchet MS", Verdana, sans-serif;color:#FFF;
background-color:#555555;}
#content{margin:0 0 0 2%;position:relative;}
.content-container{background:#FFF;width:96%;margin-top:8px;padding:10px;position:relative;}
-->
</style>
</head>
<body>
<div id="header"><h1>Server Error</h1></div>
<div id="content">
 <div class="content-container"><fieldset>
  <h2>404 - File Not Found.</h2>
  <h3>File not found for celestrak.org/NORAD/elements/active.txt.</h3>
  <h3>Please contact <a href="mailto:ts.kelso@celestrak.org">ts.kelso@celestrak.org</a> if you have other questions.</h3>
 </fieldset></div>
</div>
</body>
</html>
QZS-3 (MICHIBIKI-3)     
1 42917U 17048A   24033.01879681 -.00000329  00000+0  00000+0 0  9998
2 42917   0.0582 180.8559 0001972 144.8262 299.7978  1.00274520 23683
AMAZONAS 5              
1 42934U 17053A   24032.48493287 -.00000264  00000+0  00000+0 0  9995
2 42934   0.0399 317.1036 0005501 357.4459 290.1728  1.00272766 23357
ASIASAT 9               
1 42942U 17057A   24032.90813610 -.00000342  00000+0  00000+0 0  9998
2 42942   0.0139  81.8191 0002386 227.8763 270.9308  1.00269412 23175
INTELSAT 37E (IS-37E)   
1 42950U 17059A   24032.77513319 -.00000122  00000+0  00000+0 0  9993
2 42950   0.0132  91.0232 0002587 220.0136  81.4585  1.00273328 23373
BSAT-4A                 
1 42951U 17059B   24032.90087000 -.00000332  00000+0  00000+0 0  9995
2 42951   0.0437 313.0958 0004050  56.8265 195.8051  1.00271880 23110
QZS-4 (MICHIBIKI-4)     
1 42965U 17062A   24032.21716220 -.00000312  00000+0  00000+0 0  9999
2 42965  40.5750 354.5290 0750787 269.0191  83.2959  1.00293125 23126
SES-11 (ECHOSTAR 105)   
1 42967U 17063A   24033.11582712 -.00000070  00000+0  00000+0 0  9990
2 42967   0.0254  78.5253 0002611 231.5152 118.4870  1.00271322 23125
KOREASAT 5A             
1 42984U 17067A   24033.08868910 -.00000339  00000+0  00000+0 0  9994
2 42984   0.0133  31.7367 0001128 262.5126 342.5742  1.00269238 22944
ALCOMSAT 1              
1 43039U 17078A   24032.77374083 -.00000167  00000+0  00000+0 0  9995
2 43039   0.0439 221.1171 0002858  73.3160  90.7604  1.00272808 22609
SBIRS GEO-3 (USA 282)   
1 43162U 18009A   24032.74693782  .00000149  00000+0  00000+0 0  9993
2 43162   2.5322 330.7948 0001822 345.8196 284.3103  1.00272441 22157
AL YAH 3                
1 43174U 18012A   24032.63146830 -.00000137  00000+0  00000+0 0  9993
2 43174   0.0228 291.4621 0002061  33.6702  13.3933  1.00272266 22156
SES-14                  
1 43175U 18012B   24032.76921564 -.00000260  00000+0  00000+0 0  9990
2 43175   0.0123  11.3616 0000700 306.5351  42.9686  1.00272065 22367
GOES 17                 
1 43226U 18022A   24033.11591414 -.00000072  00000+0  00000+0 0  9996
2 43226   0.0219 138.9255 0001497 153.1282 136.7842  1.00271346 21757
HISPASAT 30W-6          
1 43228U 18023A   24032.34632795 -.00000199  00000+0  00000+0 0  9991
2 43228   0.0415  45.2910 0004336 290.3628 250.0449  1.00270306 21734
SUPERBIRD-B3            
1 43271U 18033A   24032.88251924 -.00000074  00000+0  00000+0 0  9992
2 43271   0.0224 223.0259 0001339 116.9469 271.2795  1.00271726 21374
HYLAS 4                 
1 43272U 18033B   24032.77200037 -.00000215  00000+0  00000+0 0  9997
2 43272   0.0690 266.9335 0001461  69.7633  39.2033  1.00273803 21383
IRNSS-1I                
1 43286U 18035A   24032.80225035  .00000089  00000+0  00000+0 0  9991
2 43286  28.7909  87.7962 0020696 187.4845 200.1621  1.00277733 21396
USA 283                 
1 43339U 18036A   24031.54407036 -.00000301  00000+0  00000+0 0  9992
2 43339   0.0108 106.8838 0000081 255.7138  97.6032  1.00271550 16585
COSMOS 2526             
1 43432U 18037A   24032.88372416 -.00000326  00000+0  00000+0 0  9995
2 43432   0.0264 106.3686 0000563 250.1362 221.2578  1.00272864 21283
APSTAR 6C               
1 43450U 18041A   24032.88243887 -.00000299  00000+0  00000+0 0  9998
2 43450   0.0406 259.0591 0002397  37.2041 286.9646  1.00274853 21135
BANGABANDHUSAT-1        
1 43463U 18044A   24033.08313193 -.00000344  00000+0  00000+0 0  9997
2 43463   0.0195 119.3740 0002401 201.8812 319.5277  1.00273444 21047
SES-12                  
1 43488U 18049A   24031.65174177 -.00000253  00000+0  00000+0 0  9996
2 43488   0.0107  36.0805 0002239 259.4103 164.4746  1.00272098 20710
FENGYUN 2H              
1 43491U 18050A   24032.79563282 -.00000112  00000+0  00000+0 0  9991
2 43491   0.7879  88.2812 0000904 341.3344  67.6805  1.00270884 20754
BEIDOU-2 IGSO-7         
1 43539U 18057A   24032.94292035 -.00000088  00000+0  00000+0 0  9995
2 43539  55.1371 170.5592 0069509 230.5821 180.5551  1.00294618 20454
TELSTAR 19V             
1 43562U 18059A   24032.76616985 -.00000261  00000+0  00000+0 0  9990
2 43562   0.0248 160.3807 0000203  23.4667 160.4036  1.00270281 20456
TELKOM 4 (MERAH PUTIH)  
1 43587U 18064A   24033.08868910 -.00000325  00000+0  00000+0 0  9997
2 43587   0.0109  58.8974 0001501 298.4848 274.2954  1.00271380 20175
TELSTAR 18V (APSTAR 5C) 
1 43611U 18069A   24032.87773299 -.00000276  00000+0  00000+0 0  9996
2 43611   0.0197  88.0455 0001745 233.1278 264.3546  1.00269712 19937
AZERSPACE 2 (IS-38)     
1 43632U 18074A   24032.80674417  .00000155  00000+0  00000+0 0  9995
2 43632   0.0173  92.1710 0001876 240.2131 134.6241  1.00270932 19764
HORIZONS-3E             
1 43633U 18074B   24032.88391160 -.00000012  00000+0  00000+0 0  9998
2 43633   0.0373 250.7286 0000893  60.6673 307.3829  1.00272971 19654
AEHF-4 (USA 288)        
1 43651U 18079A   24032.76521260 -.00000254  00000+0  00000+0 0  9994
2 43651   1.8643 326.1811 0004288 339.7990  33.4436  1.00270520 19614
BEIDOU-3 G1             
1 43683U 18085A   24033.02114642 -.00000261  00000+0  00000+0 0  9996
2 43683   1.8616 115.6150 0002476 319.9281 203.8156  1.00269713 19362
GSAT-29                 
1 43698U 18089A   24032.86299432  .00000103  00000+0  00000+0 0  9992
2 43698   0.0432  96.3079 0002841 184.9808 215.9866  1.00273685 19108
ES'HAIL 2               
1 43700U 18090A   24032.60257841  .00000162  00000+0  00000+0 0  9993
2 43700   0.0164  93.2182 0001038 230.5101  50.3174  1.00276183 18980
GEO-KOMPSAT-2A          
1 43823U 18100A   24032.73258868 -.00000326  00000+0  00000+0 0  9998
2 43823   0.0126  84.8336 0001091 315.3653 123.1790  1.00269738 18941
GSAT-11                 
1 43824U 18100B   24032.79563282 -.00000059  00000+0  00000+0 0  9997
2 43824   0.0789 272.0875 0004471 142.2247  77.6015  1.00272264 18791
GSAT-7A                 
1 43864U 18105A   24032.82479976  .00000045  00000+0  00000+0 0  9990
2 43864   0.0616 264.8601 0001861  33.6206 192.7165  1.00270616 18770
COSMOS 2533             
1 43867U 18107A   24032.89017427 -.00000020  00000+0  00000+0 0  9995
2 43867   0.0239 118.9074 0000233 272.5924 130.5256  1.00269449 18740
TJS-3                   
1 43874U 18110A   24032.88469479  .00000020  00000+0  00000+0 0  9993
2 43874   0.2990  89.2291 0003516 182.9967 350.8165  1.00270382 18736
CHINASAT 2D (ZX 2D)     
1 43920U 19001A   24032.87616656 -.00000319  00000+0  00000+0 0  9997
2 43920   0.0449 259.1686 0001883 351.9713 325.7917  1.00268160 45392
HELLAS-SAT 4 & SGS-1    
1 44034U 19007A   24033.07292493  .00000171  00000+0  00000+0 0  9997
2 44034   0.0693 124.0890 0002782  45.6098  27.3193  1.00271473 18661
GSAT-31                 
1 44035U 19007B   24032.80674417  .00000143  00000+0  00000+0 0  9997
2 44035   0.0760 265.9417 0005561  20.1063 183.7361  1.00274294 18281
NUSANTARA SATU          
1 44048U 19009A   24032.95091910 -.00000216  00000+0  00000+0 0  9992
2 44048   0.0217 128.2789 0000830 359.0543 132.6642  1.00271240 18076
CHINASAT 6C (ZX 6C)     
1 44067U 19012A   24032.87625359 -.00000318  00000+0  00000+0 0  9991
2 44067   0.0430  92.2383 0003815 110.5639  14.5465  1.00262841 18052
WGS 10 (USA 291)        
1 44071U 19014A   24032.82479976  .00000065  00000+0  00000+0 0  9993
2 44071   0.0175  84.9030 0000289 321.2250  82.6070  1.00272812 17946
TIANLIAN 2-01           
1 44076U 19017A   24033.08040889 -.00000088  00000+0  00000+0 0  9993
2 44076   0.0817 253.0047 0003542  83.3492 261.3827  1.00271473 17926
ARABSAT-6A              
1 44186U 19021A   24031.28085097  .00000169  00000+0  00000+0 0  9999
2 44186   0.0377  32.2261 0004286 267.9562 321.4253  1.00279567 17459
BEIDOU-2 G8             
1 44231U 19027A   24032.87903832 -.00000230  00000+0  00000+0 0  9998
2 44231   1.6101  72.7947 0003991 179.1456 340.5825  1.00275426 17390
YAMAL 601               
1 44307U 19031A   24033.16993911  .00000139  00000+0  00000+0 0  9994
2 44307   0.0147 158.5423 0002363 150.1052 293.3722  1.00273163 17221
AT&T T-16               
1 44333U 19034A   24032.40379205 -.00000097  00000+0  00000+0 0  9990
2 44333   0.0184  92.4809 0001355  90.8894 352.2171  1.00271812 16949
EUTELSAT 7C             
1 44334U 19034B   24031.03313021  .00000063  00000+0  00000+0 0  9995
2 44334   0.0724 195.4825 0003246 105.1788 208.0002  1.00273335 17400
BEIDOU-3 IGSO-2         
1 44337U 19035A   24032.26924287 -.00000100  00000+0  00000+0 0  9990
2 44337  55.1693 166.4707 0031541 201.5785 339.0789  1.00283839 16971
